{"type": "FeatureCollection", "features": [ {"type": "Feature", "properties": {"norad_id": 43623, "name": "BEIDOU-3 M14 (C33)", "group": "beidou", "lat": -49.78644633851756, "lon": 17.58799652831359, "alt_km": 21527.536834576782, "timestamp": "2025-12-01T03:58:49.201956+00:00", "meta": {"OBJECT_NAME": "BEIDOU-3 M14 (C33)", "OBJECT_ID": "2018-072B", "EPOCH": "2025-11-30T17:28:05.418336", "MEAN_MOTION": 1.86230732, "ECCENTRICITY": 0.0002999, "INCLINATION": 56.4504, "RA_OF_ASC_NODE": 69.2122, "ARG_OF_PERICENTER": 336.7685, "MEAN_ANOMALY": 23.2232, "EPHEMERIS_TYPE": 0, "CLASSIFICATION_TYPE": "U", "NORAD_CAT_ID": 43623, "ELEMENT_SET_NO": 999, "REV_AT_EPOCH": 4895, "BSTAR": 0, "MEAN_MOTION_DOT": -3.6e-07, "MEAN_MOTION_DDOT": 0, "GROUP": "beidou"}, "tle": {"line1": "1 43623U 18072B   25334.72784049 -.00000036  00000+0  00000+0 0  9992", "line2": "2 43623  56.4504  69.2122 0002999 336.7685  23.2232  1.86230732 48955"}}, "geometry": {"type": "Point", "coordinates": [17.58799652831359, -49.78644633851756]}}, {"type": "Feature", "properties": {"norad_id": 43647, "name": "BEIDOU-3 M16 (C35)", "group": "beidou", "lat": -6.3381962055116805, "lon": 131.4932559590414, "alt_km": 21547.961925312055, "timestamp": "2025-12-01T03:58:49.201968+00:00", "meta": {"OBJECT_NAME": "BEIDOU-3 M16 (C35)", "OBJECT_ID": "2018-078A", "EPOCH": "2025-11-30T08:22:25.156992", "MEAN_MOTION": 1.86232157, "ECCENTRICITY": 0.0006919, "INCLINATION": 54.2735, "RA_OF_ASC_NODE": 306.9545, "ARG_OF_PERICENTER": 18.1707, "MEAN_ANOMALY": 341.8498, "EPHEMERIS_TYPE": 0, "CLASSIFICATION_TYPE": "U", "NORAD_CAT_ID": 43647, "ELEMENT_SET_NO": 999, "REV_AT_EPOCH": 4845, "BSTAR": 0, "MEAN_MOTION_DOT": -5.2e-07, "MEAN_MOTION_DDOT": 0, "GROUP": "beidou"}, "tle": {"line1": "1 43647U 18078A   25334.34890228 -.00000052  00000+0  00000+0 0  9997", "line2": "2 43647  54.2735 306.9545 0006919  18.1707 341.8498  1.86232157 48456"}}, "geometry": {"type": "Point", "coordinates": [131.4932559590414, -6.3381962055116805]}}, {"type": "Feature", "properties": {"norad_id": 43648, "name": "BEIDOU-3 M15 (C34)", "group": "beidou", "lat": 52.77516006376651, "lon": 55.60487416661556, "alt_km": 21520.745993545224, "timestamp": "2025-12-01T03:58:49.201980+00:00", "meta": {"OBJECT_NAME": "BEIDOU-3 M15 (C34)", "OBJECT_ID": "2018-078B", "EPOCH": "2025-11-30T11:28:28.824096", "MEAN_MOTION": 1.86232024, "ECCENTRICITY": 0.0003563, "INCLINATION": 54.2691, "RA_OF_ASC_NODE": 306.951, "ARG_OF_PERICENTER": 16.9664, "MEAN_ANOMALY": 343.0409, "EPHEMERIS_TYPE": 0, "CLASSIFICATION_TYPE": "U", "NORAD_CAT_ID": 43648, "ELEMENT_SET_NO": 999, "REV_AT_EPOCH": 4847, "BSTAR": 0, "MEAN_MOTION_DOT": -5.3e-07, "MEAN_MOTION_DDOT": 0, "GROUP": "beidou"}, "tle": {"line1": "1 43648U 18078B   25334.47811139 -.00000053  00000+0  00000+0 0  9997", "line2": "2 43648  54.2691 306.9510 0003563  16.9664 343.0409  1.86232024 48471"}}, "geometry": {"type": "Point", "coordinates": [55.60487416661556, 52.77516006376651]}}, {"type": "Feature", "properties": {"norad_id": 43683, "name": "BEIDOU-3 G1 (C59)", "group": "beidou", "lat": 0.5848806821944663, "lon": -90.08939904944259, "alt_km": 35790.34088719537, "timestamp": "2025-12-01T03:58:49.201993+00:00", "meta": {"OBJECT_NAME": "BEIDOU-3 G1 (C59)", "OBJECT_ID": "2018-085A", "EPOCH": "2025-11-28T14:34:02.383392", "MEAN_MOTION": 1.00265618, "ECCENTRICITY": 0.00016155, "INCLINATION": 2.5692, "RA_OF_ASC_NODE": 103.4187, "ARG_OF_PERICENTER": 56.2445, "MEAN_ANOMALY": 266.5866, "EPHEMERIS_TYPE": 0, "CLASSIFICATION_TYPE": "U", "NORAD_CAT_ID": 43683, "ELEMENT_SET_NO": 999, "REV_AT_EPOCH": 2604, "BSTAR": 0, "MEAN_MOTION_DOT": -2.57e-06, "MEAN_MOTION_DDOT": 0, "GROUP": "beidou"}, "tle": {"line1": "1 43683U 18085A   25332.60697203 -.00000257  00000+0  00000+0 0  9997", "line2": "2 43683   2.5692 103.4187 0001615  56.2445 266.5866  1.00265618 26043"}}, "geometry": {"type": "Point", "coordinates": [-90.08939904944259, 0.5848806821944663]}}, {"type": "Feature", "properties": {"norad_id": 43706, "name": "BEIDOU-3 M17 (C36)", "group": "beidou", "lat": -4.141720605476382, "lon": -173.97451054640868, "alt_km": 21517.426246583418, "timestamp": "2025-12-01T03:58:49.202005+00:00", "meta": {"OBJECT_NAME": "BEIDOU-3 M17 (C36)", "OBJECT_ID": "2018-093A", "EPOCH": "2025-11-30T05:23:59.265600", "MEAN_MOTION": 1.86228182, "ECCENTRICITY": 0.00063751, "INCLINATION": 54.1727, "RA_OF_ASC_NODE": 189.0472, "ARG_OF_PERICENTER": 306.0351, "MEAN_ANOMALY": 138.1008, "EPHEMERIS_TYPE": 0, "CLASSIFICATION_TYPE": "U", "NORAD_CAT_ID": 43706, "ELEMENT_SET_NO": 999, "REV_AT_EPOCH": 4783, "BSTAR": 0, "MEAN_MOTION_DOT": 1.11e-06, "MEAN_MOTION_DDOT": 0, "GROUP": "beidou"}, "tle": {"line1": "1 43706U 18093A   25334.22499150  .00000111  00000+0  00000+0 0  9991", "line2": "2 43706  54.1727 189.0472 0006375 306.0351 138.1008  1.86228182 47839"}}, "geometry": {"type": "Point", "coordinates": [-173.97451054640868, -4.141720605476382]}}, {"type": "Feature", "properties": {"norad_id": 43707, "name": "BEIDOU-3 M18 (C37)", "group": "beidou", "lat": 54.10872100992601, "lon": -84.57851388244926, "alt_km": 21524.38712326549, "timestamp": "2025-12-01T03:58:49.202016+00:00", "meta": {"OBJECT_NAME": "BEIDOU-3 M18 (C37)", "OBJECT_ID": "2018-093B", "EPOCH": "2025-11-29T23:03:45.514944", "MEAN_MOTION": 1.8622645, "ECCENTRICITY": 0.00063783, "INCLINATION": 54.1734, "RA_OF_ASC_NODE": 189.048, "ARG_OF_PERICENTER": 350.6014, "MEAN_ANOMALY": 9.4764, "EPHEMERIS_TYPE": 0, "CLASSIFICATION_TYPE": "U", "NORAD_CAT_ID": 43707, "ELEMENT_SET_NO": 999, "REV_AT_EPOCH": 4782, "BSTAR": 0, "MEAN_MOTION_DOT": 1.09e-06, "MEAN_MOTION_DDOT": 0, "GROUP": "beidou"}, "tle": {"line1": "1 43707U 18093B   25333.96094346  .00000109  00000+0  00000+0 0  9997", "line2": "2 43707  54.1734 189.0480 0006378 350.6014   9.4764  1.86226450 47825"}}, "geometry": {"type": "Point", "coordinates": [-84.57851388244926, 54.10872100992601]}}, {"type": "Feature", "properties": {"norad_id": 44204, "name": "BEIDOU-3 IGSO-1 (C38)", "group": "beidou", "lat": -20.670798937536254, "lon": -126.88120808875341, "alt_km": 35686.520088403035, "timestamp": "2025-12-01T03:58:49.202038+00:00", "meta": {"OBJECT_NAME": "BEIDOU-3 IGSO-1 (C38)", "OBJECT_ID": "2019-023A", "EPOCH": "2025-11-19T14:15:02.708640", "MEAN_MOTION": 1.00252177, "ECCENTRICITY": 0.0026966, "INCLINATION": 58.4003, "RA_OF_ASC_NODE": 39.8168, "ARG_OF_PERICENTER": 221.2202, "MEAN_ANOMALY": 126.9723, "EPHEMERIS_TYPE": 0, "CLASSIFICATION_TYPE": "U", "NORAD_CAT_ID": 44204, "ELEMENT_SET_NO": 999, "REV_AT_EPOCH": 510, "BSTAR": 0, "MEAN_MOTION_DOT": -2.26e-06, "MEAN_MOTION_DDOT": 0, "GROUP": "beidou"}, "tle": {"line1": "1 44204U 19023A   25323.59378135 -.00000226  00000+0  00000+0 0  9994", "line2": "2 44204  58.4003  39.8168 0026966 221.2202 126.9723  1.00252177  5102"}}, "geometry": {"type": "Point", "coordinates": [-126.88120808875341, -20.670798937536254]}}, {"type": "Feature", "properties": {"norad_id": 44231, "name": "BEIDOU-2 G8 (C01)", "group": "beidou", "lat": -0.5644661865890138, "lon": -85.53806662668302, "alt_km": 35767.13577424873, "timestamp": "2025-12-01T03:58:49.202052+00:00", "meta": {"OBJECT_NAME": "BEIDOU-2 G8 (C01)", "OBJECT_ID": "2019-027A", "EPOCH": "2025-11-30T19:39:59.546880", "MEAN_MOTION": 1.00271144, "ECCENTRICITY": 0.0008131, "INCLINATION": 1.629, "RA_OF_ASC_NODE": 74.6865, "ARG_OF_PERICENTER": 255.5094, "MEAN_ANOMALY": 179.3301, "EPHEMERIS_TYPE": 0, "CLASSIFICATION_TYPE": "U", "NORAD_CAT_ID": 44231, "ELEMENT_SET_NO": 999, "REV_AT_EPOCH": 2409, "BSTAR": 0, "MEAN_MOTION_DOT": -2.25e-06, "MEAN_MOTION_DDOT": 0, "GROUP": "beidou"}, "tle": {"line1": "1 44231U 19027A   25334.81943920 -.00000225  00000+0  00000+0 0  9994", "line2": "2 44231   1.6290  74.6865 0008131 255.5094 179.3301  1.00271144 24092"}}, "geometry": {"type": "Point", "coordinates": [-85.53806662668302, -0.5644661865890138]}}, {"type": "Feature", "properties": {"norad_id": 44337, "name": "BEIDOU-3 IGSO-2 (C39)", "group": "beidou", "lat": 55.140243670093376, "lon": -112.06722255062257, "alt_km": 35842.914902377466, "timestamp": "2025-12-01T03:58:49.202065+00:00", "meta": {"OBJECT_NAME": "BEIDOU-3 IGSO-2 (C39)", "OBJECT_ID": "2019-035A", "EPOCH": "2025-11-28T17:30:26.765280", "MEAN_MOTION": 1.00275421, "ECCENTRICITY": 0.00375973, "INCLINATION": 55.2218, "RA_OF_ASC_NODE": 160.6256, "ARG_OF_PERICENTER": 202.098, "MEAN_ANOMALY": 87.3007, "EPHEMERIS_TYPE": 0, "CLASSIFICATION_TYPE": "U", "NORAD_CAT_ID": 44337, "ELEMENT_SET_NO": 999, "REV_AT_EPOCH": 2365, "BSTAR": 0, "MEAN_MOTION_DOT": -4e-07, "MEAN_MOTION_DDOT": 0, "GROUP": "beidou"}, "tle": {"line1": "1 44337U 19035A   25332.72947645 -.00000040  00000+0  00000+0 0  9991", "line2": "2 44337  55.2218 160.6256 0037597 202.0980  87.3007  1.00275421 23657"}}, "geometry": {"type": "Point", "coordinates": [-112.06722255062257, 55.140243670093376]}}, {"type": "Feature", "properties": {"norad_id": 44542, "name": "BEIDOU-3 M24 (C46)", "group": "beidou", "lat": 31.611405540671658, "lon": -144.4292665135064, "alt_km": 21498.779341091027, "timestamp": "2025-12-01T03:58:49.202081+00:00", "meta": {"OBJECT_NAME": "BEIDOU-3 M24 (C46)", "OBJECT_ID": "2019-061A", "EPOCH": "2025-11-30T00:46:19.979616", "MEAN_MOTION": 1.86229277, "ECCENTRICITY": 0.00095547, "INCLINATION": 54.4002, "RA_OF_ASC_NODE": 189.4453, "ARG_OF_PERICENTER": 23.3497, "MEAN_ANOMALY": 336.784, "EPHEMERIS_TYPE": 0, "CLASSIFICATION_TYPE": "U", "NORAD_CAT_ID": 44542, "ELEMENT_SET_NO": 999, "REV_AT_EPOCH": 4208, "BSTAR": 0, "MEAN_MOTION_DOT": 1.09e-06, "MEAN_MOTION_DDOT": 0, "GROUP": "beidou"}, "tle": {"line1": "1 44542U 19061A   25334.03217569  .00000109  00000+0  00000+0 0  9994", "line2": "2 44542  54.4002 189.4453 0009554  23.3497 336.7840  1.86229277 42080"}}, "geometry": {"type": "Point", "coordinates": [-144.4292665135064, 31.611405540671658]}}]}